[{"OBJECT_NAME":"STARLINK-2501","OBJECT_ID":"2021-036BG","EPOCH":"2026-03-10T00:00:02.999808","MEAN_MOTION":15.29218033,"ECCENTRICITY":0.00014517,"INCLINATION":53.1521,"RA_OF_ASC_NODE":99.2979,"ARG_OF_PERICENTER":95.6918,"MEAN_ANOMALY":344.596,"EPHEMERIS_TYPE":0,"CLASSIFICATION_TYPE":"U","NORAD_CAT_ID":48330,"ELEMENT_SET_NO":999,"REV_AT_EPOCH":579,"BSTAR":0.0042586451,"MEAN_MOTION_DOT":0.00124074,"MEAN_MOTION_DDOT":0},{"OBJECT_NAME":"LYNK TOWER 5","OBJECT_ID":"2024-043Z","EPOCH":"2026-03-09T22:11:51.175104","MEAN_MOTION":15.29454506,"ECCENTRICITY":0.00104056,"INCLINATION":97.5458,"RA_OF_ASC_NODE":204.7305,"ARG_OF_PERICENTER":234.6422,"MEAN_ANOMALY":125.3846,"EPHEMERIS_TYPE":0,"CLASSIFICATION_TYPE":"U","NORAD_CAT_ID":59121,"ELEMENT_SET_NO":999,"REV_AT_EPOCH":11186,"BSTAR":0.00031901545,"MEAN_MOTION_DOT":9.048e-5,"MEAN_MOTION_DDOT":0}]
